Building_ID,Building_Street,City,Region,State,PinCode
B01,Chirag Ali,Hyderabad Ua,South,Telangana,500001
B02,Gunfoundry,Hyderabad Ua,South,Telangana,500005
B03,King Koti Road,Hyderabad Ua,South,Telangana,500048
B04,Gowliguda Chaman,Hyderabad Ua,South,Telangana,500012
B05,Market Road ,Hyderabad Ua,South,Telangana,500010
B06,Allwincolony Road,Hyderabad Ua,South,Telangana,500037
B07,No Street Name,Hyderabad Ua,South,Telangana,500015
B08,Dwarakanagar,Hyderabad Ua,South,Telangana,500015
B09,D D Colony,Hyderabad Ua,South,Telangana,500013
B10,Rk Nagar,Hyderabad Ua,South,Telangana,500013
B11,Srinivasa Nagar Colony,Hyderabad Ua,South,Telangana,500013
B12,Dd Colony,Hyderabad Ua,South,Telangana,500013
B13,Ayyappa Swamy Temple Road,Hyderabad Ua,South,Telangana,500013
B14,Shivam Road,Hyderabad Ua,South,Telangana,500013
B15,Ravindranagar Colony Lane 7,Hyderabad Ua,South,Telangana,500007
B16,6 No X Road,Hyderabad Ua,South,Telangana,500013
B17,Bathkkamma Kunta,Hyderabad Ua,South,Telangana,500013
B18,Ganga Bowli,Hyderabad Ua,South,Telangana,500013
B19,Temple Road,Hyderabad Ua,South,Telangana,500013
B20,Ce Colony,Hyderabad Ua,South,Telangana,500013
B21,Main Road,Hyderabad Ua,South,Telangana,500013
B22,Ambethkar Nagar,Hyderabad Ua,South,Telangana,500013
B23,Red Building,Hyderabad Ua,South,Telangana,500013
B24,Golnaka Main Raod,Hyderabad Ua,South,Telangana,500013
B25,Soma Sunder Nagar,Hyderabad Ua,South,Telangana,500013
B26,No Street Name,Hyderabad Ua,South,Telangana,500013
B27,Turab Nagar,Hyderabad Ua,South,Telangana,500013
B28,Ganesh Nagar,Hyderabad Ua,South,Telangana,500020
B29,Golnaka Market Road,Hyderabad Ua,South,Telangana,500044
B30,Golnaka,Hyderabad Ua,South,Telangana,500013
B31,Mallikarjuna Nagar,Hyderabad Ua,South,Telangana,500013
B32,Ramanthapur Road,Hyderabad Ua,South,Telangana,500013
B33,Ravindranagar ,Hyderabad Ua,South,Telangana,500013
B34,Ravinder Nager,Hyderabad Ua,South,Telangana,500013
B35,Lane No 7,Hyderabad Ua,South,Telangana,500013
B36,Street No 7,Hyderabad Ua,South,Telangana,500013
B37,Golnaka Main Road,Hyderabad Ua,South,Telangana,500013
B38,Prem Nagar Colony,Hyderabad Ua,South,Telangana,500013
B39,Annapurna Nagar Colony,Hyderabad Ua,South,Telangana,500013
B40,Ramkoti,Hyderabad Ua,South,Telangana,500001
B41,Ali Cafe X Road,Hyderabad Ua,South,Telangana,500013
B42,Satya Nagar,Hyderabad Ua,South,Telangana,500013
B43,Annapoorna Colony,Hyderabad Ua,South,Telangana,500013
B44,Zindha Tilismath Road,Hyderabad Ua,South,Telangana,500013
B45,Ahmed Nagar Colony,Hyderabad Ua,South,Telangana,500013
B46,Venkatreddy Nagar,Hyderabad Ua,South,Telangana,500013
B47,Ramreddy Nagar Colony,Hyderabad Ua,South,Telangana,500013
B48,Ali Cafe,Hyderabad Ua,South,Telangana,500013
B49,Amberpet Road,Hyderabad Ua,South,Telangana,500013
B50,Shanthi Nagar Colony,Hyderabad Ua,South,Telangana,500013
B51,Tirumala Nagar,Hyderabad Ua,South,Telangana,500013
B52,Cpl Road,Hyderabad Ua,South,Telangana,500013
B53,Kamala Nagar,Hyderabad Ua,South,Telangana,500013
B54,Kamala Nagar Colony,Hyderabad Ua,South,Telangana,500013
B55,Cpl Main Road,Hyderabad Ua,South,Telangana,500013
B56,Ganga Nagar Colony,Hyderabad Ua,South,Telangana,500013
B57,Durga Nagar Colony,Hyderabad Ua,South,Telangana,500013
B58,Prem Nagar,Hyderabad Ua,South,Telangana,500013
B59,New Durga Nagar Colony,Hyderabad Ua,South,Telangana,500013
B60,Tirumala Nagar Colony,Hyderabad Ua,South,Telangana,500013
B61,New Prem Nagar Colony,Hyderabad Ua,South,Telangana,500013
B62,New Patel Nagar ,Hyderabad Ua,South,Telangana,500013
B63,Venkateshwara Nagar Colony,Hyderabad Ua,South,Telangana,500013
B64,Indira Nagar Colony,Hyderabad Ua,South,Telangana,500013
B65,Azad Nagar Colony,Hyderabad Ua,South,Telangana,500013
B66,Patel Nagar,Hyderabad Ua,South,Telangana,500013
B67,New Patel Nagar Colony,Hyderabad Ua,South,Telangana,500013
B68,Patel Nagar Road,Hyderabad Ua,South,Telangana,500013
B69,Ahmed Nagar,Hyderabad Ua,South,Telangana,500013
B70,No Street Name,Hyderabad Ua,South,Telangana,502032
B71,Nmdc Anandbagh,Hyderabad Ua,South,Telangana,500047
B72,Babul Reddy Nagar,Hyderabad Ua,South,Telangana,500077
B73,Main Road,Hyderabad Ua,South,Telangana,500077
B74,No Street Name,Hyderabad Ua,South,Telangana,500077
B75,Sai Baba Nagar,Hyderabad Ua,South,Telangana,500077
B76,Sriram Nagar,Hyderabad Ua,South,Telangana,500077
B77,Venkateswara Colony,Hyderabad Ua,South,Telangana,500077
B78,Ganesh Nagar,Hyderabad Ua,South,Telangana,500077
B79,Madhuban Colony,Hyderabad Ua,South,Telangana,500077
B80,Old Kurnool Road,Hyderabad Ua,South,Telangana,500077
B81,Tngos Colony,Hyderabad Ua,South,Telangana,500077
B82,Housing Board,Hyderabad Ua,South,Telangana,500077
B83,Tngos Colony Road,Hyderabad Ua,South,Telangana,500077
B84,Vambay Colony,Hyderabad Ua,South,Telangana,500005
B85,Vegetable Market,Hyderabad Ua,South,Telangana,500077
B86,Main Road ,Hyderabad Ua,South,Telangana,500077
B87,Officers Colony,Hyderabad Ua,South,Telangana,500062
B88,Sainathpuram,Hyderabad Ua,South,Telangana,500062
B89,As Rao Nagar,Hyderabad Ua,South,Telangana,500062
B90,Vinayaka Nagar,Hyderabad Ua,South,Telangana,502032
B91,No Street Name,Hyderabad Ua,South,Telangana,500048
B92,Pv Narsinghrao Express Way,Hyderabad Ua,South,Telangana,500048
B93,Upparpally X Road,Hyderabad Ua,South,Telangana,500048
B94,Hyderguda Cross Road,Hyderabad Ua,South,Telangana,500048
B95,Road No 6,Hyderabad Ua,South,Telangana,500048
B96,Hyderguda,Hyderabad Ua,South,Telangana,500029
B97,Ring Road,Hyderabad Ua,South,Telangana,500008
B98,No Street Name,Hyderabad Ua,South,Telangana,500028
B99,Azampura,Hyderabad Ua,South,Telangana,500024
B100,Naseeb Nagar Road,Hyderabad Ua,South,Telangana,500053
B101,Almasguda Foad,Hyderabad Ua,South,Telangana,500058
B102,Rci Road,Hyderabad Ua,South,Telangana,500058
B103,Main Road,Hyderabad Ua,South,Telangana,500058
B104,Main Riad,Hyderabad Ua,South,Telangana,500058
B105,Annapurna Nagar,Hyderabad Ua,South,Telangana,500058
B106,Haritha Homes Colony,Hyderabad Ua,South,Telangana,500058
B107,Haritha Homes,Hyderabad Ua,South,Telangana,500058
B108,Almasguda Road,Hyderabad Ua,South,Telangana,500058
B109,Almasguda,Hyderabad Ua,South,Telangana,500058
B110,Ss Reddy Nagar,Hyderabad Ua,South,Telangana,500058
B111,Shivanarayana Puram,Hyderabad Ua,South,Telangana,500058
B112,Varalaxmi Nagar,Hyderabad Ua,South,Telangana,500058
B113,C Y R Colony,Hyderabad Ua,South,Telangana,500058
B114,Badangpet Village,Hyderabad Ua,South,Telangana,500058
B115,Almasguda ,Hyderabad Ua,South,Telangana,500058
B116,Rajiv Gruhakalpa Road,Hyderabad Ua,South,Telangana,500058
B117,Venkateswara Temple Road,Hyderabad Ua,South,Telangana,500058
B118,Venkatadri Nivas,Hyderabad Ua,South,Telangana,500058
B119,Agr Colony,Hyderabad Ua,South,Telangana,500058
B120,Sri Nilayam,Hyderabad Ua,South,Telangana,500058
B121,Main Road,Hyderabad Ua,South,Telangana,501510
B122,Press Colony,Hyderabad Ua,South,Telangana,501510
B123,2 70,Hyderabad Ua,South,Telangana,500058
B124,Balapur,Hyderabad Ua,South,Telangana,500058
B125,Kishan Bagh Road,Hyderabad Ua,South,Telangana,500064
B126,No Street Name,Hyderabad Ua,South,Telangana,500064
B127,Kishan Bagh Road,Hyderabad Ua,South,Telangana,500008
B128,No Street Name,Hyderabad Ua,South,Telangana,500037
B129,No Street Name,Hyderabad Ua,South,Telangana,500042
B130,Raju Nagar Road,Hyderabad Ua,South,Telangana,500042
B131,Bala Nagar Road,Hyderabad Ua,South,Telangana,500037
B132,Sai Nagar X Road,Hyderabad Ua,South,Telangana,500042
B133,Bowenpally Road,Hyderabad Ua,South,Telangana,500042
B134,Bala Nagar Mainroad,Hyderabad Ua,South,Telangana,500037
B135,D K Road,Hyderabad Ua,South,Telangana,500016
B136,B K Guda,Hyderabad Ua,South,Telangana,500018
B137,Balkampet ,Hyderabad Ua,South,Telangana,500018
B138,Midhani Road,Hyderabad Ua,South,Telangana,500097
B139,Rci Road,Hyderabad Ua,South,Telangana,500097
B140,Slns Colony,Hyderabad Ua,South,Telangana,500097
B141,Janapriya Road,Hyderabad Ua,South,Telangana,500097
B142,Sai Ganesh Nagar,Hyderabad Ua,South,Telangana,500079
B143,Balapur,Hyderabad Ua,South,Telangana,500005
B144,Badangpet Road,Hyderabad Ua,South,Telangana,500097
B145,Zahera Nagar,Hyderabad Ua,South,Telangana,500032
B146,Road No 14,Hyderabad Ua,South,Telangana,500032
B147,Road No 7,Hyderabad Ua,South,Telangana,500034
B148,Masabtank,Hyderabad Ua,South,Telangana,500028
B149,Nb Nagar,Hyderabad Ua,South,Telangana,500034
B150,Nandi Nagar,Hyderabad Ua,South,Telangana,500034
B151,Sriramnagarcolony,Hyderabad Ua,South,Telangana,500034
B152,Uday Nagar,Hyderabad Ua,South,Telangana,500034
B153,No Street Name,Hyderabad Ua,South,Telangana,500034
B154,Roadno13,Hyderabad Ua,South,Telangana,500034
B155,V Nagar,Hyderabad Ua,South,Telangana,500034
B156,Roadno12,Hyderabad Ua,South,Telangana,500034
B157,Gourishankarnagar,Hyderabad Ua,South,Telangana,500034
B158,Roadno11,Hyderabad Ua,South,Telangana,500034
B159,Road No 10,Hyderabad Ua,South,Telangana,500034
B160,Md Lines,Hyderabad Ua,South,Telangana,500008
B161,Nallakunta,Hyderabad Ua,South,Telangana,500044
B162,Ou Road,Hyderabad Ua,South,Telangana,500044
B163,Shivam Road,Hyderabad Ua,South,Telangana,500044
B164,Barkathpura,Hyderabad Ua,South,Telangana,500027
B165,Nallakunta Vegetable Market ,Hyderabad Ua,South,Telangana,500044
B166,Barkathpura,Hyderabad Ua,South,Telangana,500044
B167,Tilak Nagar,Hyderabad Ua,South,Telangana,500044
B168,Shankarmatt Road,Hyderabad Ua,South,Telangana,500044
B169,Lingampally,Hyderabad Ua,South,Telangana,500027
B170,Ymca Road,Hyderabad Ua,South,Telangana,500027
B171,Reddy College Road,Hyderabad Ua,South,Telangana,500027
B172,Adharesh Nagar,Hyderabad Ua,South,Telangana,500004
B173,No Street Name,Hyderabad Ua,South,Telangana,500004
B174,No Street Name,Hyderabad Ua,South,Telangana,500012
B175,Shyamlal Building,Hyderabad Ua,South,Telangana,500016
B176,Shyamlal Buildings,Hyderabad Ua,South,Telangana,500016
B177,M S Mqtha,Hyderabad Ua,South,Telangana,500016
B178,Mallikarjuna Nagar,Hyderabad Ua,South,Telangana,500098
B179,No Street Name,Hyderabad Ua,South,Telangana,500039
B180,Taj Mahal Colony,Hyderabad Ua,South,Telangana,500039
B181,Chenna Reddy Colony,Hyderabad Ua,South,Telangana,500039
B182,Rajaligam Colony,Hyderabad Ua,South,Telangana,500092
B183,Shiva Sai Nagar,Hyderabad Ua,South,Telangana,500039
B184,Prashanth Nagar,Hyderabad Ua,South,Telangana,500098
B185,Shankar Nagar,Hyderabad Ua,South,Telangana,500098
B186,Rns Dream Homes,Hyderabad Ua,South,Telangana,500092
B187,Saraswathi Nagar Colony,Hyderabad Ua,South,Telangana,500092
B188,Boduppal Main Road,Hyderabad Ua,South,Telangana,500039
B189,Bheem Reddy Nagar,Hyderabad Ua,South,Telangana,500092
B190,Saraswathi Colony ,Hyderabad Ua,South,Telangana,500092
B191,No Street Name,Hyderabad Ua,South,Telangana,500098
B192,Budda Nagar,Hyderabad Ua,South,Telangana,500092
B193,Street No 2,Hyderabad Ua,South,Telangana,500098
B194,Nin Colony,Hyderabad Ua,South,Telangana,500092
B195,Canara Nagar Bus Stop,Hyderabad Ua,South,Telangana,500092
B196,Vivekananda Nagar,Hyderabad Ua,South,Telangana,500092
B197,Amasani Venkat Reddy Nagar,Hyderabad Ua,South,Telangana,500092
B198,Rns Colony,Hyderabad Ua,South,Telangana,500092
B199,Buddha Nagar,Hyderabad Ua,South,Telangana,500092
B200,Nin Colony,Hyderabad Ua,South,Telangana,500039
B201,Annapurna Colony,Hyderabad Ua,South,Telangana,500092
B202,Buddanagar,Hyderabad Ua,South,Telangana,500092
B203,Sikh Village,Hyderabad Ua,South,Telangana,500009
B204,R And D Colony,Hyderabad Ua,South,Telangana,500009
B205,Bapuji Nagar,Hyderabad Ua,South,Telangana,500009
B206,Diamond Point Road,Hyderabad Ua,South,Telangana,500009
B207,Bowenpally Market Road,Hyderabad Ua,South,Telangana,500009
B208,Chandulal Complex,Hyderabad Ua,South,Telangana,500009
B209,Manovikas Nagar,Hyderabad Ua,South,Telangana,500009
B210,Chadulal Complex,Hyderabad Ua,South,Telangana,500009
B211,Sbi Colony,Hyderabad Ua,South,Telangana,500009
B212,Bhel Enclave,Hyderabad Ua,South,Telangana,500009
B213,Kanajiguda ,Hyderabad Ua,South,Telangana,500015
B214,Hasmathpet Road,Hyderabad Ua,South,Telangana,500009
B215,Bowenpally Road,Hyderabad Ua,South,Telangana,500009
B216,Bapuji Nagar ,Hyderabad Ua,South,Telangana,500009
B217,Uma Nagar,Hyderabad Ua,South,Telangana,500011
B218,Moosa Nagar,Hyderabad Ua,South,Telangana,500036
B219,Swarnadhama Nagar,Hyderabad Ua,South,Telangana,500011
B220,Samantha Nagar,Hyderabad Ua,South,Telangana,500011
B221,Malikarjuna Colony,Hyderabad Ua,South,Telangana,500011
B222,Chaitanyapuri Colony,Hyderabad Ua,South,Telangana,500060
B223,No Street Name,Hyderabad Ua,South,Telangana,500060
B224,Road No 5 Kamalanagar,Hyderabad Ua,South,Telangana,500060
B225,No Street Name,Hyderabad Ua,South,Telangana,500035
B226,Sanskriti School Road,Hyderabad Ua,South,Telangana,500035
B227,Roadno 5 Kamalanagar,Hyderabad Ua,South,Telangana,500035
B228,Vv Nagar Bus Stop Road,Hyderabad Ua,South,Telangana,500060
B229,Vinay Nagar,Hyderabad Ua,South,Telangana,500059
B230,Keshav Nagar Colony,Hyderabad Ua,South,Telangana,501505
B231,Singareni Colony,Hyderabad Ua,South,Telangana,500079
B232,Sn Reddy Nagar Colony,Hyderabad Ua,South,Telangana,500079
B233,Sn Reddy Nagar Colony,Hyderabad Ua,South,Telangana,501505
B234,Champapet Main Road,Hyderabad Ua,South,Telangana,500079
B235,Bhanu Nagar Colony,Hyderabad Ua,South,Telangana,500059
B236,Singareni Colony ,Hyderabad Ua,South,Telangana,500059
B237,Bhanu Nagar Colony,Hyderabad Ua,South,Telangana,500079
B238,Singareni Colony ,Hyderabad Ua,South,Telangana,500079
B239,Reddy Colony,Hyderabad Ua,South,Telangana,500059
B240,Tanajinagar,Hyderabad Ua,South,Telangana,500024
B241,Shivaji Nagar,Hyderabad Ua,South,Telangana,500053
B242,Sai Baba Nagar,Hyderabad Ua,South,Telangana,500053
B243,Narqi Phoolbagh,Hyderabad Ua,South,Telangana,500053
B244,Phoolbagh,Hyderabad Ua,South,Telangana,500053
B245,Naseeb Nagar,Hyderabad Ua,South,Telangana,500053
B246,Banodaya Sangam,Hyderabad Ua,South,Telangana,500053
B247,Gulshan Iqbal Colony,Hyderabad Ua,South,Telangana,500053
B248,Kalvakurthi Road,Hyderabad Ua,South,Telangana,500005
B249,Ghazi Millat Colony,Hyderabad Ua,South,Telangana,500005
B250,Barkas,Hyderabad Ua,South,Telangana,500005
B251,Kummar Basti,Hyderabad Ua,South,Telangana,500005
B252,Salala,Hyderabad Ua,South,Telangana,500005
B253,Sadat Nagar,Hyderabad Ua,South,Telangana,500053
B254,Hanuman Nagar ,Hyderabad Ua,South,Telangana,500053
B255,Barkas Road,Hyderabad Ua,South,Telangana,500005
B256,Hanuman Nagar,Hyderabad Ua,South,Telangana,500053
B257,No Street Name,Hyderabad Ua,South,Telangana,500053
B258,Balpur Road,Hyderabad Ua,South,Telangana,500005
B259,Nayak Nivas Nagar,Hyderabad Ua,South,Telangana,500053
B260,Chandrayaan Gutta,Hyderabad Ua,South,Telangana,500053
B261,Salala Barkas,Hyderabad Ua,South,Telangana,500005
B262,Salala Barkas Road,Hyderabad Ua,South,Telangana,500005
B263,Parvathi Nagar,Hyderabad Ua,South,Telangana,500053
B264,Tallakunta,Hyderabad Ua,South,Telangana,500053
B265,Gazi Millth Colony,Hyderabad Ua,South,Telangana,500053
B266,Kandikal Gate,Hyderabad Ua,South,Telangana,500053
B267,Shivaji Nagar Fase 3,Hyderabad Ua,South,Telangana,500053
B268,Airport Road,Hyderabad Ua,South,Telangana,500005
B269,Main Road,Hyderabad Ua,South,Telangana,500005
B270,Mumtaz Bag,Hyderabad Ua,South,Telangana,500005
B271,Shivaji Nagar ,Hyderabad Ua,South,Telangana,500053
B272,Old Post Office Road,Hyderabad Ua,South,Telangana,500005
B273,Ahmed Colony,Hyderabad Ua,South,Telangana,500053
B274,Phoolbagh ,Hyderabad Ua,South,Telangana,500053
B275,Mumtaz Bagh,Hyderabad Ua,South,Telangana,500005
B276,Kummarwadi Basti ,Hyderabad Ua,South,Telangana,500005
B277,Sbi Road,Hyderabad Ua,South,Telangana,500005
B278,Kothapet Road,Hyderabad Ua,South,Telangana,500005
B279,Kummarwadi Basti,Hyderabad Ua,South,Telangana,500005
B280,Police Station Road,Hyderabad Ua,South,Telangana,500005
B281,Balapur Road,Hyderabad Ua,South,Telangana,500005
B282,Salala Barkas ,Hyderabad Ua,South,Telangana,500005
B283,Sbi Bank Road,Hyderabad Ua,South,Telangana,500005
B284,Abhu Bakar Colony,Hyderabad Ua,South,Telangana,500005
B285,Tippu Sulthan Galli,Hyderabad Ua,South,Telangana,500005
B286,Errakunta Road,Hyderabad Ua,South,Telangana,500005
B287,Errakunta X Road,Hyderabad Ua,South,Telangana,500005
B288,Pathr Area,Hyderabad Ua,South,Telangana,500005
B289,Abdullah Cement Road,Hyderabad Ua,South,Telangana,500005
B290,Iqbal Colony,Hyderabad Ua,South,Telangana,500005
B291,Hamza Colony,Hyderabad Ua,South,Telangana,500005
B292,Barkas Bazar Road,Hyderabad Ua,South,Telangana,500005
B293,Balapur Road ,Hyderabad Ua,South,Telangana,500005
B294,Murani Thalim,Hyderabad Ua,South,Telangana,500005
B295,Sadath Nagar ,Hyderabad Ua,South,Telangana,500053
B296,Salala Road,Hyderabad Ua,South,Telangana,500005
B297,Chadaw Ki Masjid,Hyderabad Ua,South,Telangana,500023
B298,No Street Name,Hyderabad Ua,South,Telangana,500023
B299,No Street Name,Hyderabad Ua,South,Telangana,500002
B300,Nyi Sadak,Hyderabad Ua,South,Telangana,500036
B301,Alijah Kotla,Hyderabad Ua,South,Telangana,500023
B302,Syed Ali Guda,Hyderabad Ua,South,Telangana,500028
B303,Yakutpura,Hyderabad Ua,South,Telangana,500023
B304,Road No 1,Hyderabad Ua,South,Telangana,500055
B305,Fish Market Road,Hyderabad Ua,South,Telangana,500020
B306,Kumar Wadi,Hyderabad Ua,South,Telangana,500024
B307,Kumarwadi,Hyderabad Ua,South,Telangana,500024
B308,Phool Bagh Chaman,Hyderabad Ua,South,Telangana,500053
B309,Nyi Sadak,Hyderabad Ua,South,Telangana,500024
B310,Station Road,Hyderabad Ua,South,Telangana,500053
B311,Mamamai Mahela Phatak,Hyderabad Ua,South,Telangana,500052
B312,Jangammet,Hyderabad Ua,South,Telangana,500053
B313,Fateh Darwaza ,Hyderabad Ua,South,Telangana,500002
B314,Esamiya Bazar,Hyderabad Ua,South,Telangana,500027
B315,Hussainialam,Hyderabad Ua,South,Telangana,500002
B316,Chanchalguda Road,Hyderabad Ua,South,Telangana,500036
B317,Nagulabanda,Hyderabad Ua,South,Telangana,500053
B318,Rajannabowli,Hyderabad Ua,South,Telangana,500053
B319,Shalibanda,Hyderabad Ua,South,Telangana,500002
B320,Sri Ram Nagar Colony,Hyderabad Ua,South,Telangana,500053
B321,Mekala Banda ,Hyderabad Ua,South,Telangana,500065
B322,Chanchalguda,Hyderabad Ua,South,Telangana,500024
B323,Syed Ali Chebuthra,Hyderabad Ua,South,Telangana,500065
B324,Nalla Pochamma Basti ,Hyderabad Ua,South,Telangana,500053
B325,Shemsheergunj,Hyderabad Ua,South,Telangana,500053
B326,Zaiqa Hotel Road,Hyderabad Ua,South,Telangana,500024
B327,Ismail Nagar,Hyderabad Ua,South,Telangana,500005
B328,Guntal Shah Dargah,Hyderabad Ua,South,Telangana,500002
B329,Mekala Banda,Hyderabad Ua,South,Telangana,500053
B330,Doodbowli,Hyderabad Ua,South,Telangana,500002
B331,Gowlipura,Hyderabad Ua,South,Telangana,500053
B332,Karvan Road,Hyderabad Ua,South,Telangana,500006
B333,No Street Name,Hyderabad Ua,South,Telangana,500065
B334,Aliabad,Hyderabad Ua,South,Telangana,500065
B335,Qadri Chaman Road,Hyderabad Ua,South,Telangana,500053
B336,Fateh Khan Bazar,Hyderabad Ua,South,Telangana,500024
B337,Sanjay Gandhi,Hyderabad Ua,South,Telangana,500053
B338,Pathar Ki Darga ,Hyderabad Ua,South,Telangana,500253
B339,Vattepally,Hyderabad Ua,South,Telangana,500002
B340,Anjuman Road,Hyderabad Ua,South,Telangana,500024
B341,Laldarwaza,Hyderabad Ua,South,Telangana,500068
B342,Vattapally,Hyderabad Ua,South,Telangana,500002
B343,Owasi Hill,Hyderabad Ua,South,Telangana,500002
B344,Guntal Shahdargah,Hyderabad Ua,South,Telangana,500002
B345,Karaman Rood,Hyderabad Ua,South,Telangana,500006
B346,Mohammadia Colony,Hyderabad Ua,South,Telangana,500002
B347,Mohammedia Colony,Hyderabad Ua,South,Telangana,500002
B348,New Nallakunta,Hyderabad Ua,South,Telangana,500044
B349,Bramin Hotel Lane,Hyderabad Ua,South,Telangana,500044
B350,Bramin Hostel Lane,Hyderabad Ua,South,Telangana,500044
B351,Adikmet,Hyderabad Ua,South,Telangana,500044
B352,Jamosmania Road,Hyderabad Ua,South,Telangana,500044
B353,Vidya Nagar,Hyderabad Ua,South,Telangana,500044
B354,No Street Name,Hyderabad Ua,South,Telangana,500062
B355,Chaitanyapuri,Hyderabad Ua,South,Telangana,500060
B356,Balaji Nagar,Hyderabad Ua,South,Telangana,500060
B357,Nagol New Maruthinagarroad,Hyderabad Ua,South,Telangana,500035
B358,Sai Nagar,Hyderabad Ua,South,Telangana,500060
B359,Karmanghat X Road,Hyderabad Ua,South,Telangana,500079
B360,Gaddiannaram,Hyderabad Ua,South,Telangana,500024
B361,Durga Nagar,Hyderabad Ua,South,Telangana,500079
B362,Nirmala Nagar,Hyderabad Ua,South,Telangana,500079
B363,Bairamalaguda,Hyderabad Ua,South,Telangana,500079
B364,Konark Theater Line,Hyderabad Ua,South,Telangana,500060
B365,Prabath Nagar Park,Hyderabad Ua,South,Telangana,500035
B366,P T Colony,Hyderabad Ua,South,Telangana,500060
B367,Sai Baba Tempul Line,Hyderabad Ua,South,Telangana,500060
B368,P T Colony,Hyderabad Ua,South,Telangana,500074
B369,Venkatadri Nagar,Hyderabad Ua,South,Telangana,500060
B370,No Street Name,Hyderabad Ua,South,Telangana,500079
B371,Shiva Gaga Teatar Line,Hyderabad Ua,South,Telangana,500060
B372,Srinagar Colony,Hyderabad Ua,South,Telangana,500060
B373,Gutham Nagar,Hyderabad Ua,South,Telangana,500060
B374,Lalitha Nagar,Hyderabad Ua,South,Telangana,500060
B375,Gaddianaram,Hyderabad Ua,South,Telangana,500060
B376,Bhavani Nagar,Hyderabad Ua,South,Telangana,500060
B377,Konark Theater Opp,Hyderabad Ua,South,Telangana,500060
B378,Vikas Nagar,Hyderabad Ua,South,Telangana,500060
B379,Dilshuknagar,Hyderabad Ua,South,Telangana,500060
B380,Vekatadri Theater Back,Hyderabad Ua,South,Telangana,500060
B381,No Street Name,Hyderabad Ua,South,Telangana,500026
B382,Addagutta,Hyderabad Ua,South,Telangana,500026
B383,East Marredypally,Hyderabad Ua,South,Telangana,500020
B384,Mahendra Hills,Hyderabad Ua,South,Telangana,500026
B385,Nehru Nagar Colony,Hyderabad Ua,South,Telangana,500026
B386,No Street Name,Hyderabad Ua,South,Telangana,500826
B387,East Marredypally,Hyderabad Ua,South,Telangana,500026
B388,Erramanzil Colony,Hyderabad Ua,South,Telangana,500082
B389,Irrumanzil,Hyderabad Ua,South,Telangana,500082
B390,Teegalkunta,Hyderabad Ua,South,Telangana,500002
B391,Ns Kunta,Hyderabad Ua,South,Telangana,500002
B392,No Street Name,Hyderabad Ua,South,Telangana,500052
B393,Shastripuram,Hyderabad Ua,South,Telangana,500002
B394,Vokshit Enclave,Hyderabad Ua,South,Telangana,500055
B395,No Street Name,Hyderabad Ua,South,Telangana,500055
B396,No Street Name,Hyderabad Ua,South,Telangana,500086
B397,Gajularamaramroad,Hyderabad Ua,South,Telangana,500055
B398,Devendernagar Road,Hyderabad Ua,South,Telangana,500055
B399,No Street Name,Hyderabad Ua,South,Telangana,500080
B400,Narapally,Hyderabad Ua,South,Telangana,500088
B401,Thorroor Road,Hyderabad Ua,South,Telangana,501505
B402,No Street Name,Hyderabad Ua,South,Telangana,501505
B403,Rajarajeshwari Colony,Hyderabad Ua,South,Telangana,501505
B404,Lectures Colony,Hyderabad Ua,South,Telangana,501505
B405,Vinayaka Nagar Colony,Hyderabad Ua,South,Telangana,501505
B406,Yella Reddy Colony,Hyderabad Ua,South,Telangana,501505
B407,Yellareddy Colony,Hyderabad Ua,South,Telangana,501505
B408,Vijayawada Road,Hyderabad Ua,South,Telangana,501505
B409,Rtc Colony,Hyderabad Ua,South,Telangana,501505
B410,Pavanagiri Colony,Hyderabad Ua,South,Telangana,501505
B411,R T C Colony,Hyderabad Ua,South,Telangana,501505
B412,Raavi Narayanana Reddy Colony,Hyderabad Ua,South,Telangana,501505
B413,Avn Reddy Colony,Hyderabad Ua,South,Telangana,501505
B414,Vinayak Nagar,Hyderabad Ua,South,Telangana,501505
B415,Kuntloor Main Road,Hyderabad Ua,South,Telangana,501505
B416,Pragathi Nagar Colony,Hyderabad Ua,South,Telangana,501505
B417,Kuntloor X Road,Hyderabad Ua,South,Telangana,501505
B418,Hanuman Nagar ,Hyderabad Ua,South,Telangana,501505
B419,Surya Nagar Colony,Hyderabad Ua,South,Telangana,501505
B420,Vijayawada High Way,Hyderabad Ua,South,Telangana,501505
B421,Andra Bank Colony,Hyderabad Ua,South,Telangana,501505
B422,Gayatri Nagar,Hyderabad Ua,South,Telangana,501505
B423,Mudiraj Colony,Hyderabad Ua,South,Telangana,501505
B424,Padmalaya Nagar Colony,Hyderabad Ua,South,Telangana,501505
B425,Bhagyalatha,Hyderabad Ua,South,Telangana,501505
B426,Defence Colony,Hyderabad Ua,South,Telangana,501505
B427,Information Colony,Hyderabad Ua,South,Telangana,501505
B428,Bhagyalatha Colony,Hyderabad Ua,South,Telangana,501505
B429,Anantha Veni Nagar,Hyderabad Ua,South,Telangana,501505
B430,Mytri Vihar ,Hyderabad Ua,South,Telangana,501505
B431,Hayathnagar Old Road,Hyderabad Ua,South,Telangana,501505
B432,Samanagar ,Hyderabad Ua,South,Telangana,501505
B433,Mudhiraj Colony,Hyderabad Ua,South,Telangana,501505
B434,Basheerbagh,Hyderabad Ua,South,Telangana,500029
B435,Sama Nagar,Hyderabad Ua,South,Telangana,501505
B436,Thorroor Main Road,Hyderabad Ua,South,Telangana,501511
B437,Subhdra Nagar,Hyderabad Ua,South,Telangana,501505
B438,Injapur Road,Hyderabad Ua,South,Telangana,501511
B439,Yamjala Road,Hyderabad Ua,South,Telangana,501505
B440,Shanthi Nagar,Hyderabad Ua,South,Telangana,501505
B441,Arunodaya Nagar,Hyderabad Ua,South,Telangana,501505
B442,Narayanguda X Road,Hyderabad Ua,South,Telangana,500029
B443,Narayanaguda,Hyderabad Ua,South,Telangana,500027
B444,Vikram Nagar,Hyderabad Ua,South,Telangana,500027
B445,Narayanaguda,Hyderabad Ua,South,Telangana,500029
B446,No Street Name,Hyderabad Ua,South,Telangana,500020
B447,No Street Name,Hyderabad Ua,South,Telangana,500029
B448,Gaganmahal Road,Hyderabad Ua,South,Telangana,500020
B449,Himayath Nagar,Hyderabad Ua,South,Telangana,500020
B450,No Street Name,Hyderabad Ua,South,Telangana,500030
B451,Threemoorthy Colony,Hyderabad Ua,South,Telangana,500026
B452,Nanan Nagar,Hyderabad Ua,South,Telangana,500026
B453,Kachiguda Station Road,Hyderabad Ua,South,Telangana,500027
B454,Kachiguda,Hyderabad Ua,South,Telangana,500027
B455,Nimboliadda,Hyderabad Ua,South,Telangana,500027
B456,Nehuru Nagar,Hyderabad Ua,South,Telangana,500027
B457,Sunder Nagar,Hyderabad Ua,South,Telangana,500013
B458,Kachiguda Railway Station,Hyderabad Ua,South,Telangana,500027
B459,Kachiguda X Road,Hyderabad Ua,South,Telangana,500027
B460,Sulthan Bazar Road,Hyderabad Ua,South,Telangana,500027
B461,Ramkoti Road,Hyderabad Ua,South,Telangana,500027
B462,Kutbiguda,Hyderabad Ua,South,Telangana,500027
B463,Kachiguda Basanth Road,Hyderabad Ua,South,Telangana,500027
B464,Kutibiguda,Hyderabad Ua,South,Telangana,500027
B465,Raj Mohalla Road,Hyderabad Ua,South,Telangana,500027
B466,Chappal Bazar,Hyderabad Ua,South,Telangana,500027
B467,Station Road,Hyderabad Ua,South,Telangana,500027
B468,Karwan Road,Hyderabad Ua,South,Telangana,500006
B469,Old Subzi Mandi Road,Hyderabad Ua,South,Telangana,500006
B470,Subzimandi Road,Hyderabad Ua,South,Telangana,500006
B471,Karwan,Hyderabad Ua,South,Telangana,500006
B472,Pancha Bhai Alawa Road,Hyderabad Ua,South,Telangana,500006
B473,Tappachaputra X Road,Hyderabad Ua,South,Telangana,500006
B474,Gandhi Bhavan Veedi,Hyderabad Ua,South,Telangana,500006
B475,No Street Name,Hyderabad Ua,South,Telangana,500006
B476,Jiyaguda Road,Hyderabad Ua,South,Telangana,500006
B477,Lalitha Nagar,Hyderabad Ua,South,Telangana,500079
B478,Vijaya Homes,Hyderabad Ua,South,Telangana,500079
B479,Vivek Nagar,Hyderabad Ua,South,Telangana,500097
B480,Main Road,Hyderabad Ua,South,Telangana,500079
B481,Ring Road,Hyderabad Ua,South,Telangana,500006
B482,Raghavendra Nagar,Hyderabad Ua,South,Telangana,500094
B483,Mustaidpura,Hyderabad Ua,South,Telangana,500006
B484,Ziyaguda Road,Hyderabad Ua,South,Telangana,500006
B485,Venkateshwara Nagar,Hyderabad Ua,South,Telangana,500001
B486,Lakdi Ka Pul,Hyderabad Ua,South,Telangana,500004
B487,Safdabad,Hyderabad Ua,South,Telangana,500004
B488,Shanti Nagar,Hyderabad Ua,South,Telangana,500004
B489,Anand Nagar,Hyderabad Ua,South,Telangana,500004
B490,Venkatramana Colony,Hyderabad Ua,South,Telangana,500004
B491,Chinthal Basthi,Hyderabad Ua,South,Telangana,500004
B492,Banjara Hills Road,Hyderabad Ua,South,Telangana,500004
B493,Prem Nagar,Hyderabad Ua,South,Telangana,500004
B494,Ac Ghat Road,Hyderabad Ua,South,Telangana,500004
B495,Erramanzil Colony,Hyderabad Ua,South,Telangana,500004
B496,Masab Tank,Hyderabad Ua,South,Telangana,500004
B497,Anand Nagar Colony,Hyderabad Ua,South,Telangana,500004
B498,Panjagutta Road,Hyderabad Ua,South,Telangana,500004
B499,Anand Nagar ,Hyderabad Ua,South,Telangana,500004
B500,Kairathabad Main Road,Hyderabad Ua,South,Telangana,500004
B501,Naveen Nagar,Hyderabad Ua,South,Telangana,500004
B502,Nagarjuna Circle Road,Hyderabad Ua,South,Telangana,500004
B503,King Colony,Hyderabad Ua,South,Telangana,500002
B504,Kings Colony,Hyderabad Ua,South,Telangana,500002
B505,Kings Colon6,Hyderabad Ua,South,Telangana,500002
B506,No Street Name,Hyderabad Ua,South,Telangana,500005
B507,Osmanpura,Hyderabad Ua,South,Telangana,500024
B508,Laxmi Ganesh Temple,Hyderabad Ua,South,Telangana,500016
B509,Badichowdi,Hyderabad Ua,South,Telangana,500001
B510,Badichowdi,Hyderabad Ua,South,Telangana,500095
B511,Sulthan Bazar,Hyderabad Ua,South,Telangana,500001
B512,Kruparam Bagh ,Hyderabad Ua,South,Telangana,500027
B513,Abids Road,Hyderabad Ua,South,Telangana,500048
B514,King Koti,Hyderabad Ua,South,Telangana,500048
B515,King Koti,Hyderabad Ua,South,Telangana,500029
B516,Pardha Gate,Hyderabad Ua,South,Telangana,500029
B517,Sher Gate,Hyderabad Ua,South,Telangana,500059
B518,Sher Gate,Hyderabad Ua,South,Telangana,500029
B519,Koti,Hyderabad Ua,South,Telangana,500001
B520,Hanuman Tekdi,Hyderabad Ua,South,Telangana,500001
B521,Mir Mehamood Pahadi Rd,Hyderabad Ua,South,Telangana,500064
B522,Mangalhat Main Road,Hyderabad Ua,South,Telangana,500091
B523,Kishanbagh Road,Hyderabad Ua,South,Telangana,500064
B524,Dulapally Main Road,Hyderabad Ua,South,Telangana,500014
B525,No Street Name,Hyderabad Ua,South,Telangana,500014
B526,Bhagyalaxmi Colony,Hyderabad Ua,South,Telangana,500055
B527,Dulapallymain Road,Hyderabad Ua,South,Telangana,500014
B528,Maisammaguda ,Hyderabad Ua,South,Telangana,500043
B529,Dulapally Road,Hyderabad Ua,South,Telangana,500014
B530,Dulapally,Hyderabad Ua,South,Telangana,500014
B531,Sri Sai Gardens Function Hall Road,Hyderabad Ua,South,Telangana,500035
B532,S B I Colony,Hyderabad Ua,South,Telangana,500035
B533,Vijaypuri Colony,Hyderabad Ua,South,Telangana,500035
B534,Kothapet L B Nagar Road,Hyderabad Ua,South,Telangana,500035
B535,New Maruthi Nagar,Hyderabad Ua,South,Telangana,500035
B536,Nagol Road,Hyderabad Ua,South,Telangana,500035
B537,Mohan Nagar,Hyderabad Ua,South,Telangana,500035
B538,Janaprya Quartess,Hyderabad Ua,South,Telangana,500035
B539,Road No 5 Kamalanagar,Hyderabad Ua,South,Telangana,500035
B540,Raod No 5 Kamalanagar,Hyderabad Ua,South,Telangana,500035
B541,Izzatnagar,Hyderabad Ua,South,Telangana,500084
B542,No Street Name,Hyderabad Ua,South,Telangana,500010
B543,Street 1,Hyderabad Ua,South,Telangana,500010
B544,Bvk Theater Road,Hyderabad Ua,South,Telangana,500074
B545,Saroor Nagar Road,Hyderabad Ua,South,Telangana,500074
B546,No Street Name,Hyderabad Ua,South,Telangana,500074
B547,N T R Nagar,Hyderabad Ua,South,Telangana,500074
B548,Janapriya Colony,Hyderabad Ua,South,Telangana,500035
B549,Green Hills Colony,Hyderabad Ua,South,Telangana,500035
B550,Saroor Nagar,Hyderabad Ua,South,Telangana,500035
B551,Kaminani To Siri Road,Hyderabad Ua,South,Telangana,500035
B552,L B Nagar ,Hyderabad Ua,South,Telangana,500074
B553,Shiva Gaga Colony,Hyderabad Ua,South,Telangana,500035
B554,Mansoorabadroad,Hyderabad Ua,South,Telangana,500068
B555,Road No 1 Suryodayacolony,Hyderabad Ua,South,Telangana,500068
B556,Lothukunta Main Road,Hyderabad Ua,South,Telangana,500015
B557,Mailardevpally,Hyderabad Ua,South,Telangana,500077
B558,Pragathi Colony,Hyderabad Ua,South,Telangana,500077
B559,Mailardevpally ,Hyderabad Ua,South,Telangana,500077
B560,Brundavan Colony,Hyderabad Ua,South,Telangana,500077
B561,Moghals Colony,Hyderabad Ua,South,Telangana,500005
B562,Woramgadda,Hyderabad Ua,South,Telangana,500077
B563,Durga Nagar,Hyderabad Ua,South,Telangana,500077
B564,Airport Road,Hyderabad Ua,South,Telangana,500077
B565,Maij Road,Hyderabad Ua,South,Telangana,500077
B566,Airpot Road,Hyderabad Ua,South,Telangana,500077
B567,Bandlaguda,Hyderabad Ua,South,Telangana,500077
B568,Mainroad,Hyderabad Ua,South,Telangana,500077
B569,Muthaj College,Hyderabad Ua,South,Telangana,500060
B570,Asmangadh,Hyderabad Ua,South,Telangana,500060
B571,Muthaz College Road,Hyderabad Ua,South,Telangana,500060
B572,Anand Nagar,Hyderabad Ua,South,Telangana,500060
B573,New Malakpet,Hyderabad Ua,South,Telangana,500036
B574,Race Course Road,Hyderabad Ua,South,Telangana,500036
B575,Saleem Nagar ,Hyderabad Ua,South,Telangana,500036
B576,Saleem Nagar Colony,Hyderabad Ua,South,Telangana,500036
B577,Water Tank Road,Hyderabad Ua,South,Telangana,500036
B578,Anjuman Road,Hyderabad Ua,South,Telangana,500036
B579,Nalgonda X Road,Hyderabad Ua,South,Telangana,500024
B580,Pbg Lane,Hyderabad Ua,South,Telangana,500036
B581,Saleem Nagar Colony Road,Hyderabad Ua,South,Telangana,500036
B582,Chand Plaza Road,Hyderabad Ua,South,Telangana,500024
B583,Old Malakpet,Hyderabad Ua,South,Telangana,500036
B584,Mahabubia Masjid Road,Hyderabad Ua,South,Telangana,500024
B585,Fkagaz Kharkhana,Hyderabad Ua,South,Telangana,500036
B586,Old Malakpet Road,Hyderabad Ua,South,Telangana,500036
B587,Pathir Ki Masjid Road,Hyderabad Ua,South,Telangana,500024
B588,Jamal Colony ,Hyderabad Ua,South,Telangana,500036
B589,Musurambagh Road,Hyderabad Ua,South,Telangana,500036
B590,Mch Colony,Hyderabad Ua,South,Telangana,500036
B591,Waheb Nagar,Hyderabad Ua,South,Telangana,500036
B592,Khagaz Kharkhana,Hyderabad Ua,South,Telangana,500036
B593,Wahed Nagar,Hyderabad Ua,South,Telangana,500036
B594,Wahed Nagar Colony,Hyderabad Ua,South,Telangana,500036
B595,Madina Colony,Hyderabad Ua,South,Telangana,500036
B596,Khagaz Kharkhana ,Hyderabad Ua,South,Telangana,500036
B597,Sripuram Colony,Hyderabad Ua,South,Telangana,500036
B598,Shanker Nagar,Hyderabad Ua,South,Telangana,500036
B599,Jamia Masjid Line,Hyderabad Ua,South,Telangana,500036
B600,Ashraf Nagar,Hyderabad Ua,South,Telangana,500036
B601,Moti Masjid Road,Hyderabad Ua,South,Telangana,500024
B602,Zia Ul Haq Masjid Line,Hyderabad Ua,South,Telangana,500036
B603,Jamia Masjid Road,Hyderabad Ua,South,Telangana,500036
B604,Ibrahim Function Hall Beside Line,Hyderabad Ua,South,Telangana,500024
B605,Officers Colony,Hyderabad Ua,South,Telangana,500024
B606,Kaladera ,Hyderabad Ua,South,Telangana,500036
B607,Raj Darbhar Road,Hyderabad Ua,South,Telangana,500024
B608,Almond Street,Hyderabad Ua,South,Telangana,500036
B609,Nalgonda X Road,Hyderabad Ua,South,Telangana,500036
B610,Padma Nagar Colony,Hyderabad Ua,South,Telangana,500036
B611,Musurambagh Main Road,Hyderabad Ua,South,Telangana,500036
B612,Govt Press Road,Hyderabad Ua,South,Telangana,500036
B613,Jama Masjid Line,Hyderabad Ua,South,Telangana,500024
B614,G9Vt Press Road,Hyderabad Ua,South,Telangana,500036
B615,Govt Press Road,Hyderabad Ua,South,Telangana,500024
B616,Wahed Nagarv,Hyderabad Ua,South,Telangana,500036
B617,1,Hyderabad Ua,South,Telangana,500047
B618,Maruthi Nagar,Hyderabad Ua,South,Telangana,500047
B619,No Street Name,Hyderabad Ua,South,Telangana,500047
B620,Rtc Colony,Hyderabad Ua,South,Telangana,500040
B621,Sri Colony,Hyderabad Ua,South,Telangana,500056
B622,Vani Nagar,Hyderabad Ua,South,Telangana,500047
B623,Malkajgiri Road,Hyderabad Ua,South,Telangana,500047
B624,Geetha Nagar,Hyderabad Ua,South,Telangana,500047
B625,Narsihma Reddy Nagar,Hyderabad Ua,South,Telangana,500047
B626,Lothkunta X Road ,Hyderabad Ua,South,Telangana,500015
B627,Alwal Main Road ,Hyderabad Ua,South,Telangana,500015
B628,R K Nagar,Hyderabad Ua,South,Telangana,500047
B629,Durga Nagar,Hyderabad Ua,South,Telangana,500047
B630,Bhavani Nagar,Hyderabad Ua,South,Telangana,500047
B631,Pvn Colony,Hyderabad Ua,South,Telangana,500047
B632,Venkateshwara Nagar,Hyderabad Ua,South,Telangana,500047
B633,Ciefl Colony,Hyderabad Ua,South,Telangana,500047
B634,Sudha Encleve,Hyderabad Ua,South,Telangana,500047
B635,East Anandbagh Road,Hyderabad Ua,South,Telangana,500047
B636,Vishnupuri Colony,Hyderabad Ua,South,Telangana,500047
B637,Upparguda,Hyderabad Ua,South,Telangana,500047
B638,Cifl Colony,Hyderabad Ua,South,Telangana,500047
B639,R K Nagar Colony,Hyderabad Ua,South,Telangana,500047
B640,Siripuri Colony Road,Hyderabad Ua,South,Telangana,500047
B641,2Nd,Hyderabad Ua,South,Telangana,500047
B642,Prashant Nagar,Hyderabad Ua,South,Telangana,500047
B643,Laxmi Nagar Road,Hyderabad Ua,South,Telangana,500047
B644,Venkatesheara Nagar,Hyderabad Ua,South,Telangana,500047
B645,Railway Quaters,Hyderabad Ua,South,Telangana,500047
B646,Raja Srinivasa Nagar,Hyderabad Ua,South,Telangana,500047
B647,Madhusudhan Nagar,Hyderabad Ua,South,Telangana,500047
B648,Mallapur,Hyderabad Ua,South,Telangana,500079
B649,Mallapur,Hyderabad Ua,South,Telangana,500076
B650,Temple Road,Hyderabad Ua,South,Telangana,500051
B651,Mallapur Main Road,Hyderabad Ua,South,Telangana,500076
B652,Annapurna Colony,Hyderabad Ua,South,Telangana,500076
B653,Mallapur Road,Hyderabad Ua,South,Telangana,500076
B654,Aphb Colony,Hyderabad Ua,South,Telangana,500057
B655,M G Nagar,Hyderabad Ua,South,Telangana,500004
B656,No Street Name,Hyderabad Ua,South,Telangana,500054
B657,M G Nagar ,Hyderabad Ua,South,Telangana,500004
B658,Banjara Hills Road,Hyderabad Ua,South,Telangana,500028
B659,Ahmed Nagar,Hyderabad Ua,South,Telangana,500028
B660,Pragathi Nagar,Hyderabad Ua,South,Telangana,500097
B661,Main Road,Hyderabad Ua,South,Telangana,500097
B662,Pragathi Colony,Hyderabad Ua,South,Telangana,500097
B663,Hb Colony,Hyderabad Ua,South,Telangana,500040
B664,Nfc Main Road,Hyderabad Ua,South,Telangana,500040
B665,Janapriya Maha Nagar,Hyderabad Ua,South,Telangana,500097
B666,Ysr Nagar,Hyderabad Ua,South,Telangana,500058
B667,Ysr Nagar,Hyderabad Ua,South,Telangana,500035
B668,No Street Name,Hyderabad Ua,South,Telangana,500097
B669,Shivaji Nagar,Hyderabad Ua,South,Telangana,500097
B670,Meerpet Oldbus Stop,Hyderabad Ua,South,Telangana,500097
B671,Prasanthi Hills,Hyderabad Ua,South,Telangana,500097
B672,Hanuman Nagar,Hyderabad Ua,South,Telangana,500097
B673,R N Reddy,Hyderabad Ua,South,Telangana,500097
B674,Main Riad,Hyderabad Ua,South,Telangana,500097
B675,Meerpet,Hyderabad Ua,South,Telangana,500097
B676,Nandhi Hills,Hyderabad Ua,South,Telangana,500097
B677,B N Reddy Road,Hyderabad Ua,South,Telangana,500097
B678,Sirla Homes ,Hyderabad Ua,South,Telangana,500097
B679,Laxmi Nagar Colony,Hyderabad Ua,South,Telangana,500097
B680,Nandhi Hills ,Hyderabad Ua,South,Telangana,500097
B681,Bn Reddy Road,Hyderabad Ua,South,Telangana,500097
B682,Tirumala Hills,Hyderabad Ua,South,Telangana,500097
B683,Trr Township,Hyderabad Ua,South,Telangana,500097
B684,Hanuman Nagar,Hyderabad Ua,South,Telangana,500079
B685,Rethi Bowli Road,Hyderabad Ua,South,Telangana,500028
B686,Nanal Nagar Road,Hyderabad Ua,South,Telangana,500028
B687,Mehdipatnam Road,Hyderabad Ua,South,Telangana,500028
B688,Qadar Bagh Road,Hyderabad Ua,South,Telangana,500028
B689,Megidipatnam,Hyderabad Ua,South,Telangana,500028
B690,Murad Nagar,Hyderabad Ua,South,Telangana,500028
B691,Mehdipatnam X Road,Hyderabad Ua,South,Telangana,500028
B692,Asif Nagar Road,Hyderabad Ua,South,Telangana,500028
B693,Gudimalkapur,Hyderabad Ua,South,Telangana,500028
B694,Humayun Nagar,Hyderabad Ua,South,Telangana,500028
B695,Guddimalkapur X Road,Hyderabad Ua,South,Telangana,500028
B696,Guddimalkapur Road,Hyderabad Ua,South,Telangana,500061
B697,No Street Name,Hyderabad Ua,South,Telangana,500008
B698,Golden Palace Circle,Hyderabad Ua,South,Telangana,500006
B699,Khadhar Bagh Road,Hyderabad Ua,South,Telangana,500008
B700,Khadher Bagh Road,Hyderabad Ua,South,Telangana,500008
B701,Gudimalkapur Main Road,Hyderabad Ua,South,Telangana,500028
B702,Asif Nagar,Hyderabad Ua,South,Telangana,500028
B703,Vishwas Nagar Colony,Hyderabad Ua,South,Telangana,500028
B704,Priya Colony,Hyderabad Ua,South,Telangana,500028
B705,Jeevana Kalyan Nagar,Hyderabad Ua,South,Telangana,500028
B706,Mehadipatnam Bus Depot,Hyderabad Ua,South,Telangana,500028
B707,Mehadipatnam X Road,Hyderabad Ua,South,Telangana,500028
B708,Hills Colony,Hyderabad Ua,South,Telangana,500028
B709,Alapati Nagar,Hyderabad Ua,South,Telangana,500028
B710,Maqbool,Hyderabad Ua,South,Telangana,500028
B711,Asif Nagar X Road,Hyderabad Ua,South,Telangana,500028
B712,Asif Nagar Zeba Bhag,Hyderabad Ua,South,Telangana,500028
B713,Mehadipatnam M I G G One,Hyderabad Ua,South,Telangana,500028
B714,Ac Garden Road,Hyderabad Ua,South,Telangana,500001
B715,Murad Nagar Gudimalkapur,Hyderabad Ua,South,Telangana,500028
B716,Zeba Bhag,Hyderabad Ua,South,Telangana,500028
B717,Mehdipatnam,Hyderabad Ua,South,Telangana,500028
B718,Gudimalkapur ,Hyderabad Ua,South,Telangana,500028
B719,Murad Nagar ,Hyderabad Ua,South,Telangana,500028
B720,Sbi Colony,Hyderabad Ua,South,Telangana,500028
B721,Mahaheer Yadava Nagar,Hyderabad Ua,South,Telangana,500028
B722,Sbi Colony,Hyderabad Ua,South,Telangana,500036
B723,New Bhoiguda,Hyderabad Ua,South,Telangana,500003
B724,New Bhoiguda,Hyderabad Ua,South,Telangana,500020
B725,Padmarao Nagar,Hyderabad Ua,South,Telangana,500020
B726,R T C X Road,Hyderabad Ua,South,Telangana,500020
B727,Ayyappaswamy Templeroad,Hyderabad Ua,South,Telangana,500017
B728,No Street Name,Hyderabad Ua,South,Telangana,500003
B729,Rampally Main Road ,Hyderabad Ua,South,Telangana,501301
B730,Ravindranagar,Hyderabad Ua,South,Telangana,500013
B731,Rampally Village Road ,Hyderabad Ua,South,Telangana,501301
B732,Praja Sai X Road,Hyderabad Ua,South,Telangana,501301
B733,Bandlaguda Road,Hyderabad Ua,South,Telangana,500068
B734,Kismatpur Rd,Hyderabad Ua,South,Telangana,500084
B735,No Street Name,Hyderabad Ua,South,Telangana,500084
B736,No Street Name,Hyderabad Ua,South,Telangana,500091
B737,Anandnagar,Hyderabad Ua,South,Telangana,500068
B738,Kalimandir Road,Hyderabad Ua,South,Telangana,500086
B739,Bandlaguda Kistampur Road,Hyderabad Ua,South,Telangana,500086
B740,Kismatpur Rd,Hyderabad Ua,South,Telangana,500086
B741,Nagole Road,Hyderabad Ua,South,Telangana,500068
B742,Anand Nagar X Road,Hyderabad Ua,South,Telangana,500068
B743,No Street Name,Hyderabad Ua,South,Telangana,500068
B744,Chevella Road,Hyderabad Ua,South,Telangana,500031
B745,Hydershakote Village Road,Hyderabad Ua,South,Telangana,500091
B746,Ali Nagar,Hyderabad Ua,South,Telangana,500005
B747,Road No 12 Madhuranagar,Hyderabad Ua,South,Telangana,500068
B748,No Street Name,Hyderabad Ua,South,Telangana,500094
B749,Palace View Colony,Hyderabad Ua,South,Telangana,500005
B750,Kalimandir Road,Hyderabad Ua,South,Telangana,500094
B751,Kings Avenue,Hyderabad Ua,South,Telangana,500005
B752,Ghouse Nagar,Hyderabad Ua,South,Telangana,500005
B753,Patel Nagar,Hyderabad Ua,South,Telangana,500005
B754,Ahmed Nagar,Hyderabad Ua,South,Telangana,500005
B755,Mohammed Nagar,Hyderabad Ua,South,Telangana,500005
B756,Noori Shah Road,Hyderabad Ua,South,Telangana,500005
B757,Rahamath Colony,Hyderabad Ua,South,Telangana,500005
B758,Quba Colony,Hyderabad Ua,South,Telangana,500005
B759,Crystal Town,Hyderabad Ua,South,Telangana,500005
B760,Cresent Town,Hyderabad Ua,South,Telangana,500005
B761,Noori Nagar,Hyderabad Ua,South,Telangana,500005
B762,Jahangirabad,Hyderabad Ua,South,Telangana,500005
B763,Bagh Lingampally Sundarayya Park,Hyderabad Ua,South,Telangana,500044
B764,Manghal Ghat,Hyderabad Ua,South,Telangana,500001
B765,Mangalhat Road,Hyderabad Ua,South,Telangana,500091
B766,Mangalhat Road,Hyderabad Ua,South,Telangana,500006
B767,Mangalhat Road,Hyderabad Ua,South,Telangana,500021
B768,Goshamahal Road,Hyderabad Ua,South,Telangana,500001
B769,Aghapura X Road,Hyderabad Ua,South,Telangana,500001
B770,Aghapura Road,Hyderabad Ua,South,Telangana,500001
B771,Gyanbagh Colony X Road,Hyderabad Ua,South,Telangana,500021
B772,Cafe Central Bakery,Hyderabad Ua,South,Telangana,500001
B773,No Street Name,Hyderabad Ua,South,Telangana,500001
B774,Dargah Yousufain Road,Hyderabad Ua,South,Telangana,500001
B775,Aghapura Road,Hyderabad Ua,South,Telangana,500021
B776,Sindhi Colony,Hyderabad Ua,South,Telangana,500003
B777,Sindhu Colony,Hyderabad Ua,South,Telangana,500003
B778,P G Road,Hyderabad Ua,South,Telangana,500003
B779,Wallker Towen,Hyderabad Ua,South,Telangana,500020
B780,Wallker Town,Hyderabad Ua,South,Telangana,500020
B781,Pluse Hospital Line,Hyderabad Ua,South,Telangana,500020
B782,Jaya Chandra Enclave,Hyderabad Ua,South,Telangana,500020
B783,Musheer Bad,Hyderabad Ua,South,Telangana,500020
B784,Srinivas Nagar,Hyderabad Ua,South,Telangana,500020
B785,Padma Raonagar,Hyderabad Ua,South,Telangana,500061
B786,Chilkalguda,Hyderabad Ua,South,Telangana,500061
B787,Yashodha Hospital Road,Hyderabad Ua,South,Telangana,500082
B788,Nampalli Road,Hyderabad Ua,South,Telangana,500082
B789,Jafar Alli Bhag,Hyderabad Ua,South,Telangana,500082
B790,Nampally Road,Hyderabad Ua,South,Telangana,500082
B791,Somajiguda Road Nekless Road,Hyderabad Ua,South,Telangana,500082
B792,Dwarakapuri Colony,Hyderabad Ua,South,Telangana,500082
B793,Sri Nagar Colony,Hyderabad Ua,South,Telangana,500082
B794,Budha Nagar,Hyderabad Ua,South,Telangana,500098
B795,P T Colony,Hyderabad Ua,South,Telangana,500098
B796,Buddha Nagar,Hyderabad Ua,South,Telangana,500098
B797,Shivarampally Village,Hyderabad Ua,South,Telangana,500052
B798,Reddy Colony,Hyderabad Ua,South,Telangana,500052
B799,Ragavendra Colony,Hyderabad Ua,South,Telangana,500055
B800,Housing Colony Quthubullapur,Hyderabad Ua,South,Telangana,500055
B801,Quthubullapur Village,Hyderabad Ua,South,Telangana,500055
B802,Ganesh Housing Colony,Hyderabad Ua,South,Telangana,500055
B803,Suchitra Road,Hyderabad Ua,South,Telangana,500055
B804,Krishna Nagar,Hyderabad Ua,South,Telangana,500055
B805,Mn Reddy Nagar F 2,Hyderabad Ua,South,Telangana,500045
B806,Vimanapuri Colony,Hyderabad Ua,South,Telangana,500055
B807,Godhawari House,Hyderabad Ua,South,Telangana,500055
B808,Giri Nagar,Hyderabad Ua,South,Telangana,500037
B809,Jairam Nagar,Hyderabad Ua,South,Telangana,500055
B810,Suchitra Circle,Hyderabad Ua,South,Telangana,500055
B811,Rk Puram,Hyderabad Ua,South,Telangana,500056
B812,Rk Puram ,Hyderabad Ua,South,Telangana,500056
B813,Fish Marcket,Hyderabad Ua,South,Telangana,500020
B814,Zam Zam Masjid Line,Hyderabad Ua,South,Telangana,500020
B815,Ram Nagar Road,Hyderabad Ua,South,Telangana,500020
B816,B K Guda,Hyderabad Ua,South,Telangana,500038
B817,Sr Nagar,Hyderabad Ua,South,Telangana,500038
B818,No Street Name,Hyderabad Ua,South,Telangana,500056
B819,No Street Name,Hyderabad Ua,South,Telangana,500057
B820,Indraprasta Colony 11,Hyderabad Ua,South,Telangana,500059
B821,Saidabad,Hyderabad Ua,South,Telangana,500024
B822,Sbh Colony,Hyderabad Ua,South,Telangana,500059
B823,Laxmi Nagar,Hyderabad Ua,South,Telangana,500059
B824,Sri Laxmi Nagar Colony,Hyderabad Ua,South,Telangana,500059
B825,Lokayuktha Colony,Hyderabad Ua,South,Telangana,500059
B826,Saidabad Colony,Hyderabad Ua,South,Telangana,500059
B827,No Street Name,Hyderabad Ua,South,Telangana,500059
B828,Saidabad Main Road,Hyderabad Ua,South,Telangana,500059
B829,Saraswathi Nagar Colony,Hyderabad Ua,South,Telangana,500059
B830,Krishna Nagar,Hyderabad Ua,South,Telangana,500059
B831,Krishna Nagar Colony,Hyderabad Ua,South,Telangana,500059
B832,Saingareni Colony,Hyderabad Ua,South,Telangana,500059
B833,Shanikeshwara Bazar,Hyderabad Ua,South,Telangana,500059
B834,Singareni Colony,Hyderabad Ua,South,Telangana,500059
B835,Adarsh Nagar Colony,Hyderabad Ua,South,Telangana,500059
B836,Saida Bad Colony,Hyderabad Ua,South,Telangana,500059
B837,Madhannapetmandi,Hyderabad Ua,South,Telangana,500059
B838,Ambedkar Nagar,Hyderabad Ua,South,Telangana,500062
B839,4Th Cross ,Hyderabad Ua,South,Telangana,500094
B840,Defence Colony,Hyderabad Ua,South,Telangana,500094
B841,Defence Colony,Hyderabad Ua,South,Telangana,500084
B842,Sainikpuri,Hyderabad Ua,South,Telangana,500084
B843,Shubash Nagar,Hyderabad Ua,South,Telangana,500018
B844,Peddakandiguda,Hyderabad Ua,South,Telangana,500087
B845,Hypertension Lane Eeshwaripuri Colony,Hyderabad Ua,South,Telangana,500094
B846,Sanathnagar,Hyderabad Ua,South,Telangana,500038
B847,Sanathnagar,Hyderabad Ua,South,Telangana,500018
B848,Czech Colony,Hyderabad Ua,South,Telangana,500018
B849,Ashok Colony,Hyderabad Ua,South,Telangana,500018
B850,No Street Name,Hyderabad Ua,South,Telangana,500038
B851,Dnm Colony,Hyderabad Ua,South,Telangana,500038
B852,Pr Nagar,Hyderabad Ua,South,Telangana,500018
B853,Santhosh Nagar,Hyderabad Ua,South,Telangana,500059
B854,Subramanya Nagar Colony Road No 5,Hyderabad Ua,South,Telangana,500059
B855,Eidgah Rd,Hyderabad Ua,South,Telangana,500086
B856,Eid Gah Road,Hyderabad Ua,South,Telangana,500086
B857,New Santhosh Nagar Colony,Hyderabad Ua,South,Telangana,500059
B858,Crida Road,Hyderabad Ua,South,Telangana,500059
B859,Santhosh Nagar Main Road,Hyderabad Ua,South,Telangana,500059
B860,Mb Haat,Hyderabad Ua,South,Telangana,500059
B861,Santosh Nagar,Hyderabad Ua,South,Telangana,500059
B862,Ghashi Bazar,Hyderabad Ua,South,Telangana,500059
B863,Old Santhosh Nagar,Hyderabad Ua,South,Telangana,500059
B864,Khalendar Nagar,Hyderabad Ua,South,Telangana,500059
B865,New Santhosh Nagar Colony ,Hyderabad Ua,South,Telangana,500059
B866,Road No 1,Hyderabad Ua,South,Telangana,500059
B867,Mb Haat ,Hyderabad Ua,South,Telangana,500059
B868,Greenpark Colony Comon,Hyderabad Ua,South,Telangana,500079
B869,Gandhi Chorastha,Hyderabad Ua,South,Telangana,500079
B870,Haripuri Colony,Hyderabad Ua,South,Telangana,500035
B871,Venkateswara Colony,Hyderabad Ua,South,Telangana,500035
B872,Nfc Road,Hyderabad Ua,South,Telangana,500040
B873,Krishna Veni Nagar,Hyderabad Ua,South,Telangana,500040
B874,Jawahar Nagar,Hyderabad Ua,South,Telangana,500040
B875,Venkateshwara Colony,Hyderabad Ua,South,Telangana,500040
B876,Hema Nagar,Hyderabad Ua,South,Telangana,500039
B877,Kushaiguda Main Road,Hyderabad Ua,South,Telangana,500062
B878,Boiguda,Hyderabad Ua,South,Telangana,500003
B879,Kavadiguda,Hyderabad Ua,South,Telangana,500080
B880,Indira Nagar,Hyderabad Ua,South,Telangana,500040
B881,Krishna Nagar Colony ,Hyderabad Ua,South,Telangana,500040
B882,Lalitha Nagar,Hyderabad Ua,South,Telangana,500026
B883,Boduppal Road,Hyderabad Ua,South,Telangana,500039
B884,Kavagudha Road,Hyderabad Ua,South,Telangana,500080
B885,Kavadiguda C G O Taurus Road,Hyderabad Ua,South,Telangana,500080
B886,No Street Name,Hyderabad Ua,South,Telangana,500043
B887,Bhel Colony,Hyderabad Ua,South,Telangana,500010
B888,Warasiguda,Hyderabad Ua,South,Telangana,500061
B889,Chandragiri Colony,Hyderabad Ua,South,Telangana,500056
B890,East Anandbagh,Hyderabad Ua,South,Telangana,500047
B891,Bhaskar Rao Nagar,Hyderabad Ua,South,Telangana,500094
B892,Gayatri Nagar,Hyderabad Ua,South,Telangana,500040
B893,Ambethkar College Road,Hyderabad Ua,South,Telangana,500020
B894,Yapral,Hyderabad Ua,South,Telangana,500087
B895,Chakripur,Hyderabad Ua,South,Telangana,500094
B896,G N Reddy Nagar,Hyderabad Ua,South,Telangana,500062
B897,Nagarjuna Nagar Colony,Hyderabad Ua,South,Telangana,500062
B898,Hmt Bearings Officers Colony,Hyderabad Ua,South,Telangana,500094
B899,Officers Colony,Hyderabad Ua,South,Telangana,500087
B900,Nirmal Nagar,Hyderabad Ua,South,Telangana,500094
B901,Vegetables Market Complex,Hyderabad Ua,South,Telangana,500062
B902,Road No 2,Hyderabad Ua,South,Telangana,500062
B903,Bapuji Nagar,Hyderabad Ua,South,Telangana,500087
B904,Kushaiguda Road,Hyderabad Ua,South,Telangana,500062
B905,Santoshima Nagar,Hyderabad Ua,South,Telangana,500056
B906,Chikkadapally,Hyderabad Ua,South,Telangana,500020
B907,Kamala Nagar,Hyderabad Ua,South,Telangana,500062
B908,Chintal Road,Hyderabad Ua,South,Telangana,500054
B909,Padmanagar,Hyderabad Ua,South,Telangana,500054
B910,Padmavathi Colony,Hyderabad Ua,South,Telangana,500062
B911,Vijayapuri Colony,Hyderabad Ua,South,Telangana,500062
B912,Vegetables Market Road,Hyderabad Ua,South,Telangana,500062
B913,Saket Road,Hyderabad Ua,South,Telangana,500062
B914,No Street Name,Hyderabad Ua,South,Telangana,500040
B915,Late View Encleve Nagaram Arogya Vanam,Hyderabad Ua,South,Telangana,500083
B916,Naik Nagar,Hyderabad Ua,South,Telangana,500062
B917,Bhavani Nagar,Hyderabad Ua,South,Telangana,500062
B918,Jyothinagar,Hyderabad Ua,South,Telangana,500047
B919,Vasavinagar ,Hyderabad Ua,South,Telangana,500015
B920,Sp Nagar,Hyderabad Ua,South,Telangana,500040
B921,Dammaiguda Road,Hyderabad Ua,South,Telangana,500062
B922,Ecil Road,Hyderabad Ua,South,Telangana,500062
B923,Balaji Nagar,Hyderabad Ua,South,Telangana,500087
B924,V R R Encleve,Hyderabad Ua,South,Telangana,500083
B925,Cpr Colony,Hyderabad Ua,South,Telangana,500054
B926,Aurora College Road,Hyderabad Ua,South,Telangana,500020
B927,M N Reddy Nagar,Hyderabad Ua,South,Telangana,500054
B928,V R R Encleve Nagaram Arogya Vanam,Hyderabad Ua,South,Telangana,500083
B929,Raghavendra Colony ,Hyderabad Ua,South,Telangana,502032
B930,Himmatpura,Hyderabad Ua,South,Telangana,500002
B931,Shah Gung,Hyderabad Ua,South,Telangana,500002
B932,Fateh Darwaza,Hyderabad Ua,South,Telangana,500002
B933,Pahadi Shareef,Hyderabad Ua,South,Telangana,500005
B934,Shaheen Nagar,Hyderabad Ua,South,Telangana,500005
B935,Sheen,Hyderabad Ua,South,Telangana,500005
B936,Brundavan Colony,Hyderabad Ua,South,Telangana,501218
B937,Main Road,Hyderabad Ua,South,Telangana,501218
B938,Somajiguda,Hyderabad Ua,South,Telangana,500018
B939,Vijay Nagar Colony Road,Hyderabad Ua,South,Telangana,500057
B940,Ntr Marg Tankbound,Hyderabad Ua,South,Telangana,500001
B941,Ntr Marg Inside Ntr Samadhi,Hyderabad Ua,South,Telangana,500004
B942,Street No 8,Hyderabad Ua,South,Telangana,500007
B943,Street No 8,Hyderabad Ua,South,Telangana,500013
B944,Habsiguda,Hyderabad Ua,South,Telangana,500007
B945,Street No8,Hyderabad Ua,South,Telangana,500007
B946,No Street Name,Hyderabad Ua,South,Telangana,500017
B947,Street No 10,Hyderabad Ua,South,Telangana,500017
B948,Vijayapuri Colony,Hyderabad Ua,South,Telangana,500007
B949,Ravinder Nagar,Hyderabad Ua,South,Telangana,500007
B950,Mettu Guda,Hyderabad Ua,South,Telangana,500017
B951,Rl Nagar Indhiramma Colony,Hyderabad Ua,South,Telangana,501301
B952,No Street Name,Hyderabad Ua,South,Telangana,500076
B953,Nagarjuna Nagar Colony,Hyderabad Ua,South,Telangana,500072
B954,Rl Nagar Main Road Satyanaraya Colony,Hyderabad Ua,South,Telangana,501301
B955,Rampally Road,Hyderabad Ua,South,Telangana,500062
B956,West Gandhi Nagar,Hyderabad Ua,South,Telangana,500086
B957,Keesara Road,Hyderabad Ua,South,Telangana,500083
B958,Satyanarayana Colony Bus Stop,Hyderabad Ua,South,Telangana,500083
B959,Rampally Road,Hyderabad Ua,South,Telangana,500083
B960,No Street Name,Hyderabad Ua,South,Telangana,501301
B961,Tilak Nagar,Hyderabad Ua,South,Telangana,500013
B962,Indira Nagar,Hyderabad Ua,South,Telangana,500044
B963,Indira Nagar,Hyderabad Ua,South,Telangana,500013
B964,R K Nagar,Hyderabad Ua,South,Telangana,500068
B965,O U Colony,Hyderabad Ua,South,Telangana,500033
B966,Siddanthi Road,Hyderabad Ua,South,Telangana,501218
B967,Kakatiya Nagar,Hyderabad Ua,South,Telangana,500008
B968,Tolichowki X Roads,Hyderabad Ua,South,Telangana,500008
B969,Paramount Colony,Hyderabad Ua,South,Telangana,500008
B970,Md Lines Road,Hyderabad Ua,South,Telangana,500008
B971,Fort Road,Hyderabad Ua,South,Telangana,500008
B972,Dwaraka Nagar,Hyderabad Ua,South,Telangana,500033
B973,Manikonda Road,Hyderabad Ua,South,Telangana,500033
B974,Seven Tombs Road,Hyderabad Ua,South,Telangana,500008
B975,Suryanagar Colony,Hyderabad Ua,South,Telangana,500008
B976,Gachibowli Road,Hyderabad Ua,South,Telangana,500008
B977,Samatha Colony,Hyderabad Ua,South,Telangana,500008
B978,Manikonda Road,Hyderabad Ua,South,Telangana,500008
B979,Tolichowki X Roads ,Hyderabad Ua,South,Telangana,500008
B980,Rs Darga,Hyderabad Ua,South,Telangana,500008
B981,Seven Tombs,Hyderabad Ua,South,Telangana,500008
B982,Bada Bazar Road,Hyderabad Ua,South,Telangana,500008
B983,7 Tombs Road,Hyderabad Ua,South,Telangana,500008
B984,Maruthi Nagar Colony Street 01,Hyderabad Ua,South,Telangana,500008
B985,Lal Bazar,Hyderabad Ua,South,Telangana,500015
B986,Trimulgherry,Hyderabad Ua,South,Telangana,500015
B987,Sd Road,Hyderabad Ua,South,Telangana,500003
B988,Srinivas Nagar Colany,Hyderabad Ua,South,Telangana,500020
B989,Sharadha Nagar,Hyderabad Ua,South,Telangana,500013
B990,New Bharath Nagar,Hyderabad Ua,South,Telangana,500039
B991,Adarsha Nagar,Hyderabad Ua,South,Telangana,500039
B992,Ganesh Nagar,Hyderabad Ua,South,Telangana,500039
B993,Swaroop Nagar,Hyderabad Ua,South,Telangana,500039
B994,Sri Sri Nagar,Hyderabad Ua,South,Telangana,500039
B995,Balaji Hills,Hyderabad Ua,South,Telangana,500039
B996,New Hema Nagar,Hyderabad Ua,South,Telangana,500039
B997,Padmavathi Colony,Hyderabad Ua,South,Telangana,500039
B998,West Balaji Hills,Hyderabad Ua,South,Telangana,500039
B999,Sairam Nagar,Hyderabad Ua,South,Telangana,500039
B1000,Eedaiah Nagar,Hyderabad Ua,South,Telangana,500039
B1001,Chilkanagar,Hyderabad Ua,South,Telangana,500039
B1002,Shankar Nagar,Hyderabad Ua,South,Telangana,500039
B1003,Chilkanagar X Road,Hyderabad Ua,South,Telangana,500039
B1004,Rajashekhar Colony,Hyderabad Ua,South,Telangana,500039
B1005,Survey Of India,Hyderabad Ua,South,Telangana,500039
B1006,Prashanth Nagar,Hyderabad Ua,South,Telangana,500039
B1007,Ashoknagar,Hyderabad Ua,South,Telangana,500062
B1008,Bank Colony,Hyderabad Ua,South,Telangana,500039
B1009,Huda Sai Nagar,Hyderabad Ua,South,Telangana,500070
B1010,Hasthinapurammain Road,Hyderabad Ua,South,Telangana,500070
B1011,Hasthinapuram Main Road,Hyderabad Ua,South,Telangana,500070
B1012,Bhagyalatha ,Hyderabad Ua,South,Telangana,501505
B1013,No Street Name,Hyderabad Ua,South,Telangana,500070
B1014,Midhani Colony,Hyderabad Ua,South,Telangana,501510
B1015,Injapur Road,Hyderabad Ua,South,Telangana,500070
B1016,Durga Nagar Colony,Hyderabad Ua,South,Telangana,501510
B1017,Saifi Colony,Hyderabad Ua,South,Telangana,500002
B1018,Bibi Ka Chasma,Hyderabad Ua,South,Telangana,500002
B1019,B K Puram,Hyderabad Ua,South,Telangana,500002
B1020,Shama Colony,Hyderabad Ua,South,Telangana,500002
B1021,Main Road,Hyderabad Ua,South,Telangana,500020
B1022,Adikmet,Hyderabad Ua,South,Telangana,500020
B1023,Jv Estates,Hyderabad Ua,South,Telangana,500020
B1024,No08,Hyderabad Ua,South,Telangana,500004
B1025,Parsigutta Road ,Hyderabad Ua,South,Telangana,500020
B1026,Ganesh Nagar Colany,Hyderabad Ua,South,Telangana,500020
B1027,St Pious School,Hyderabad Ua,South,Telangana,500020
B1028,Street No 08,Hyderabad Ua,South,Telangana,500020
B1029,East Mch Colany,Hyderabad Ua,South,Telangana,500020
B1030,Ramnagar Gundu,Hyderabad Ua,South,Telangana,500044
B1031,Ramnagar,Hyderabad Ua,South,Telangana,500029
B1032,Ramnagar,Hyderabad Ua,South,Telangana,500020
B1033,Red Hills,Hyderabad Ua,South,Telangana,500004
B1034,Red Hills ,Hyderabad Ua,South,Telangana,500004
B1035,Bazar Guard,Hyderabad Ua,South,Telangana,500004
B1036,Hassan Heights Road,Hyderabad Ua,South,Telangana,500001
B1037,Criminal Court Road,Hyderabad Ua,South,Telangana,500001
B1038,Vijaynagar Colony,Hyderabad Ua,South,Telangana,500057
B1039,Mallapally Ac Guards Road,Hyderabad Ua,South,Telangana,500001
B1040,Goshamahal Street No 8,Hyderabad Ua,South,Telangana,500001
B1041,Vijaya Nagar Colony Road,Hyderabad Ua,South,Telangana,500054
B1042,Darussalam Road,Hyderabad Ua,South,Telangana,500001
B1043,Jamia Masjid Road,Hyderabad Ua,South,Telangana,500001
B1044,V N Colony Road,Hyderabad Ua,South,Telangana,500057
B1045,Nampally Railway Station Road,Hyderabad Ua,South,Telangana,500001
B1046,Vijaya Nagar Colony X Road,Hyderabad Ua,South,Telangana,500057
B1047,Habeeb Nagar Road,Hyderabad Ua,South,Telangana,500004
B1048,New Mallepally Road,Hyderabad Ua,South,Telangana,500057
B1049,Majid Road ,Hyderabad Ua,South,Telangana,500061
B1050,Boudha Nagar,Hyderabad Ua,South,Telangana,500061
B1051,Majid Road Warasiguda,Hyderabad Ua,South,Telangana,500061
B1052,Majid Road Warsiguda,Hyderabad Ua,South,Telangana,500061
B1053,Warasiguda X Road,Hyderabad Ua,South,Telangana,500061
B1054,Nadergul Road,Hyderabad Ua,South,Telangana,501510
B1055,Church Road,Hyderabad Ua,South,Telangana,501510
B1056,Injapur Village Road,Hyderabad Ua,South,Telangana,501510
B1057,Nagarjuna Sagar Road,Hyderabad Ua,South,Telangana,501510
B1058,Balaji Nagar,Hyderabad Ua,South,Telangana,500049
B1059,Madhura Nagar,Hyderabad Ua,South,Telangana,500038
B1060,Venkatagiri,Hyderabad Ua,South,Telangana,500035
B1061,Krishna Nagar,Hyderabad Ua,South,Telangana,500045
B1062,No Street Name,Hyderabad Ua,South,Telangana,500050
B1063,Suncity Main Road,Hyderabad Ua,South,Telangana,500091
B1064,Manjeera Road,Hyderabad Ua,South,Telangana,500050
B1065,Patancheru Road,Hyderabad Ua,South,Telangana,502032
B1066,No Street Name,Hyderabad Ua,South,Telangana,500090
B1067,No Street Name,Hyderabad Ua,South,Telangana,500072
B1068,No Street Name,Hyderabad Ua,South,Telangana,500019
B1069,Road No 4,Hyderabad Ua,South,Telangana,500072
B1070,Chanda Nagar Road,Hyderabad Ua,South,Telangana,500050
B1071,Srila Pride Park Road,Hyderabad Ua,South,Telangana,500072
B1072,Vijay Nagar Colony,Hyderabad Ua,South,Telangana,500072
B1073,Eenadu Colony,Hyderabad Ua,South,Telangana,500072
B1074,Srila Park Pride Road,Hyderabad Ua,South,Telangana,500072
B1075,Pragathi Nagar,Hyderabad Ua,South,Telangana,500072
B1076,Bhagyanagar,Hyderabad Ua,South,Telangana,500072
B1077,Vijay Nagar,Hyderabad Ua,South,Telangana,500072
B1078,Rk Street,Hyderabad Ua,South,Telangana,500072
B1079,Mahankali Nagar,Hyderabad Ua,South,Telangana,500072
B1080,Subodaya Colony,Hyderabad Ua,South,Telangana,500072
B1081,As Raju Nagar,Hyderabad Ua,South,Telangana,500072
B1082,Thulasi Nagar,Hyderabad Ua,South,Telangana,500072
B1083,Pjr Nagar,Hyderabad Ua,South,Telangana,500072
B1084,Thulsi Nagar,Hyderabad Ua,South,Telangana,500072
B1085,Miyapur Main Road,Hyderabad Ua,South,Telangana,500049
B1086,Indra Nagar,Hyderabad Ua,South,Telangana,500072
B1087,Jayanagar,Hyderabad Ua,South,Telangana,500072
B1088,Ntr Nagar,Hyderabad Ua,South,Telangana,500072
B1089,9Th Phase,Hyderabad Ua,South,Telangana,500072
B1090,Shathavahana Nagar,Hyderabad Ua,South,Telangana,500072
B1091,Kukat Palli Main Road,Hyderabad Ua,South,Telangana,500072
B1092,No Street Name,Hyderabad Ua,South,Telangana,500031
B1093,Sri Srinivas Colony,Hyderabad Ua,South,Telangana,500090
B1094,Vv Nagar,Hyderabad Ua,South,Telangana,500072
B1095,Nijampet Road,Hyderabad Ua,South,Telangana,500072
B1096,Sathavahana Nagar,Hyderabad Ua,South,Telangana,500072
B1097,Western Hills,Hyderabad Ua,South,Telangana,500072
B1098,Jai Bharath Nagar,Hyderabad Ua,South,Telangana,500072
B1099,Mahanakali Nagar,Hyderabad Ua,South,Telangana,500072
B1100,A S Raju Nagar,Hyderabad Ua,South,Telangana,500090
B1101,Jagathgirigutta Road,Hyderabad Ua,South,Telangana,500037
B1102,Kondapur Road,Hyderabad Ua,South,Telangana,500084
B1103,Jaipuri Colony Road,Hyderabad Ua,South,Telangana,500068
B1104,P And T Colony,Hyderabad Ua,South,Telangana,500091
B1105,Bsnl Office Road,Hyderabad Ua,South,Telangana,500072
B1106,Jaipuri Colony,Hyderabad Ua,South,Telangana,500068
B1107,Nizampetroad,Hyderabad Ua,South,Telangana,500072
B1108,Kukatpally Road,Hyderabad Ua,South,Telangana,500037
B1109,Kukatpally Road,Hyderabad Ua,South,Telangana,500072
B1110,Road No4,Hyderabad Ua,South,Telangana,500072
B1111,Ramalayam Road,Hyderabad Ua,South,Telangana,500072
B1112,Kothaguda Road,Hyderabad Ua,South,Telangana,500084
B1113,Vaishali Nagar Road,Hyderabad Ua,South,Telangana,500049
B1114,Paparayudu Nagar,Hyderabad Ua,South,Telangana,500072
B1115,Thulasi Nagar ,Hyderabad Ua,South,Telangana,500072
B1116,B J P Office Road,Hyderabad Ua,South,Telangana,500072
B1117,Manjeera Pipeline,Hyderabad Ua,South,Telangana,500049
B1118,Madinaguda,Hyderabad Ua,South,Telangana,500049
B1119,Kukatpally Main Road,Hyderabad Ua,South,Telangana,500072
B1120,Absebos Colony,Hyderabad Ua,South,Telangana,500037
B1121,Chanda Nagar Main Road,Hyderabad Ua,South,Telangana,500049
B1122,Hafizpet Road,Hyderabad Ua,South,Telangana,500084
B1123,No Street Name,Hyderabad Ua,South,Telangana,500832
B1124,Mig Phase1,Hyderabad Ua,South,Telangana,502032
B1125,Road No 7 New Mig,Hyderabad Ua,South,Telangana,502032
B1126,Suncity Road,Hyderabad Ua,South,Telangana,500091
B1127,Jagathgirigutta Road,Hyderabad Ua,South,Telangana,500072
B1128,No Street Name,Hyderabad Ua,South,Telangana,500032
B1129,Deepthisri Nagar,Hyderabad Ua,South,Telangana,500049
B1130,Prem Nagar ,Hyderabad Ua,South,Telangana,500049
B1131,Madhapuri Hills,Hyderabad Ua,South,Telangana,500050
B1132,Raos High School Road,Hyderabad Ua,South,Telangana,500072
B1133,Prashanti Nagar Road,Hyderabad Ua,South,Telangana,500072
B1134,Masjid Banda Road,Hyderabad Ua,South,Telangana,500084
B1135,Sri Vani Nagar,Hyderabad Ua,South,Telangana,502032
B1136,Madhavapuri Hills,Hyderabad Ua,South,Telangana,500050
B1137,Masjid Banda,Hyderabad Ua,South,Telangana,500084
B1138,Hydershakote Road,Hyderabad Ua,South,Telangana,500031
B1139,Sai Anurag Colony,Hyderabad Ua,South,Telangana,500090
B1140,Pjr Road,Hyderabad Ua,South,Telangana,500050
B1141,Pragathi Nagar Road,Hyderabad Ua,South,Telangana,500090
B1142,Prashanti Nagar,Hyderabad Ua,South,Telangana,500090
B1143,Keerthi Mahal,Hyderabad Ua,South,Telangana,502032
B1144,Prem Nagar,Hyderabad Ua,South,Telangana,500049
B1145,Mig Phase2,Hyderabad Ua,South,Telangana,502032
B1146,Old Mig,Hyderabad Ua,South,Telangana,502032
B1147,Dlf Road,Hyderabad Ua,South,Telangana,500084
B1148,Bhel Road,Hyderabad Ua,South,Telangana,502032
B1149,Gachibowli Road,Hyderabad Ua,South,Telangana,500032
B1150,234 Old Mig,Hyderabad Ua,South,Telangana,502032
B1151,Keerthi Mahal Bus Stop,Hyderabad Ua,South,Telangana,502032
B1152,White Field Road,Hyderabad Ua,South,Telangana,500032
B1153,Pragathi Nagar,Hyderabad Ua,South,Telangana,500090
B1154,Gachibowli Road,Hyderabad Ua,South,Telangana,500035
B1155,Isnapur Cross Road,Hyderabad Ua,South,Telangana,502307
B1156,Sn Colony,Hyderabad Ua,South,Telangana,502032
B1157,Gandamguda Road,Hyderabad Ua,South,Telangana,500091
B1158,Road No 10 New Mig,Hyderabad Ua,South,Telangana,502032
B1159,Pashamylaram Road,Hyderabad Ua,South,Telangana,502300
B1160,Chitkul Road,Hyderabad Ua,South,Telangana,502307
B1161,Bachupally X Road,Hyderabad Ua,South,Telangana,500090
B1162,Isnapur Cross Road,Hyderabad Ua,South,Telangana,502300
B1163,Road No 3,Hyderabad Ua,South,Telangana,500091
B1164,Sai Priya Colony,Hyderabad Ua,South,Telangana,502307
B1165,Padmarao Nagar,Hyderabad Ua,South,Telangana,502300
B1166,Pragathinagar Road,Hyderabad Ua,South,Telangana,500090
B1167,Majeed Galli Jp Nagar,Hyderabad Ua,South,Telangana,500049
B1168,Chandanagar Thanda,Hyderabad Ua,South,Telangana,500081
B1169,Nanakramguda Road,Hyderabad Ua,South,Telangana,500032
B1170,Nizampet Road,Hyderabad Ua,South,Telangana,500090
B1171,Vandanapuri Colony,Hyderabad Ua,South,Telangana,502032
B1172,Pragathi Enclave,Hyderabad Ua,South,Telangana,500049
B1173,Papireddy Colony,Hyderabad Ua,South,Telangana,500019
B1174,Jp Nagar,Hyderabad Ua,South,Telangana,500049
B1175,M G Road,Hyderabad Ua,South,Telangana,502319
B1176,Puppala Guda,Hyderabad Ua,South,Telangana,500089
B1177,Gopanpally Road,Hyderabad Ua,South,Telangana,500046
B1178,No Street Name,Hyderabad Ua,South,Telangana,500046
B1179,Ameenpur,Hyderabad Ua,South,Telangana,502032
B1180,Sainagar ,Hyderabad Ua,South,Telangana,500081
B1181,Nizampet Road,Hyderabad Ua,South,Telangana,500072
B1182,Alkapur Township,Hyderabad Ua,South,Telangana,500089
B1183,Bhavanipuram Colony,Hyderabad Ua,South,Telangana,502032
B1184,Arunodhaya Colony,Hyderabad Ua,South,Telangana,500081
B1185,Bhartinagar,Hyderabad Ua,South,Telangana,502302
B1186,No Street Name,Hyderabad Ua,South,Telangana,500075
B1187,Sai Ram Colony,Hyderabad Ua,South,Telangana,500008
B1188,T Seva Road,Hyderabad Ua,South,Telangana,500049
B1189,Icrisat Colony,Hyderabad Ua,South,Telangana,502032
B1190,No Street Name,Hyderabad Ua,South,Telangana,502319
B1191,No Street Name,Hyderabad Ua,South,Telangana,500018
B1192,Manikonda Queters,Hyderabad Ua,South,Telangana,500008
B1193,Srinivasa Colony,Hyderabad Ua,South,Telangana,500089
B1194,Hmt Colony,Hyderabad Ua,South,Telangana,500049
B1195,Bollaram Road,Hyderabad Ua,South,Telangana,500049
B1196,Gopanpally Road,Hyderabad Ua,South,Telangana,500032
B1197,No Street Name,Hyderabad Ua,South,Telangana,500089
B1198,Rajeev Gandhi Nagar,Hyderabad Ua,South,Telangana,500090
B1199,Manikonda,Hyderabad Ua,South,Telangana,500089
B1200,Ayyappa Society,Hyderabad Ua,South,Telangana,500081
B1201,Laxmi Narasimha Swamy Nagar,Hyderabad Ua,South,Telangana,500089
B1202,Secretariat Colony,Hyderabad Ua,South,Telangana,500089
B1203,Miyapur Chowrasta,Hyderabad Ua,South,Telangana,500049
B1204,Road No 10 Mig Phase2,Hyderabad Ua,South,Telangana,502032
B1205,Shiridi Sai Nagar,Hyderabad Ua,South,Telangana,500008
B1206,Datta Sai Nagar Colony,Hyderabad Ua,South,Telangana,500049
B1207,Rajivgruhakalpa Colony,Hyderabad Ua,South,Telangana,500019
B1208,Nizampet Road,Hyderabad Ua,South,Telangana,500049
B1209,Ayyappasociety Colony,Hyderabad Ua,South,Telangana,500081
B1210,Marrichettu Road,Hyderabad Ua,South,Telangana,500089
B1211,Rajugruhakalpa ,Hyderabad Ua,South,Telangana,500090
B1212,Rajugruhakalpa,Hyderabad Ua,South,Telangana,500090
B1213,Alkapur ,Hyderabad Ua,South,Telangana,500089
B1214,Suncity,Hyderabad Ua,South,Telangana,500091
B1215,Hitech City Road,Hyderabad Ua,South,Telangana,500081
B1216,Widia Colony,Hyderabad Ua,South,Telangana,500049
